CCSDS_OMM_VERS = 2.0
CREATION_DATE  = 
ORIGINATOR     = 

OBJECT_NAME    = KUIPER-00128
OBJECT_ID      = 2025-228L
CENTER_NAME    = EARTH
REF_FRAME      = TEME
TIME_SYSTEM    = UTC
MEAN_ELEMENT_THEORY = SGP/SGP4

EPOCH          = 2025-11-08T16:06:49.676256
MEAN_MOTION    = 15.34963567
ECCENTRICITY   = .0005683
INCLINATION    = 51.8777
RA_OF_ASC_NODE = 184.7196
ARG_OF_PERICENTER = 225.6705
MEAN_ANOMALY   = 134.3815

EPHEMERIS_TYPE = 0
CLASSIFICATION_TYPE = U
NORAD_CAT_ID   = 65957
ELEMENT_SET_NO = 999
REV_AT_EPOCH   = 518
BSTAR          = .14249E-2
MEAN_MOTION_DOT = .49022E-3
MEAN_MOTION_DDOT = 0

CCSDS_OMM_VERS = 2.0
CREATION_DATE  = 
ORIGINATOR     = 

OBJECT_NAME    = KUIPER-00129
OBJECT_ID      = 2025-228M
CENTER_NAME    = EARTH
REF_FRAME      = TEME
TIME_SYSTEM    = UTC
MEAN_ELEMENT_THEORY = SGP/SGP4

EPOCH          = 2025-11-07T08:51:02.102112
MEAN_MOTION    = 15.34958626
ECCENTRICITY   = .00057555
INCLINATION    = 51.8777
RA_OF_ASC_NODE = 190.9873
ARG_OF_PERICENTER = 219.8143
MEAN_ANOMALY   = 140.2422

EPHEMERIS_TYPE = 0
CLASSIFICATION_TYPE = U
NORAD_CAT_ID   = 65958
ELEMENT_SET_NO = 999
REV_AT_EPOCH   = 498
BSTAR          = .18478821E-2
MEAN_MOTION_DOT = .63802E-3
MEAN_MOTION_DDOT = 0

CCSDS_OMM_VERS = 2.0
CREATION_DATE  = 
ORIGINATOR     = 

OBJECT_NAME    = KUIPER-00130
OBJECT_ID      = 2025-228N
CENTER_NAME    = EARTH
REF_FRAME      = TEME
TIME_SYSTEM    = UTC
MEAN_ELEMENT_THEORY = SGP/SGP4

EPOCH          = 2025-11-08T16:11:28.560768
MEAN_MOTION    = 15.34796184
ECCENTRICITY   = .0005069
INCLINATION    = 51.8771
RA_OF_ASC_NODE = 184.7330
ARG_OF_PERICENTER = 231.1079
MEAN_ANOMALY   = 128.9455

EPHEMERIS_TYPE = 0
CLASSIFICATION_TYPE = U
NORAD_CAT_ID   = 65959
ELEMENT_SET_NO = 999
REV_AT_EPOCH   = 518
BSTAR          = .17859E-2
MEAN_MOTION_DOT = .61304E-3
MEAN_MOTION_DDOT = 0

CCSDS_OMM_VERS = 2.0
CREATION_DATE  = 
ORIGINATOR     = 

OBJECT_NAME    = KUIPER-00134
OBJECT_ID      = 2025-228P
CENTER_NAME    = EARTH
REF_FRAME      = TEME
TIME_SYSTEM    = UTC
MEAN_ELEMENT_THEORY = SGP/SGP4

EPOCH          = 2025-11-08T08:25:02.906112
MEAN_MOTION    = 15.34705468
ECCENTRICITY   = .0004991
INCLINATION    = 51.8769
RA_OF_ASC_NODE = 186.3105
ARG_OF_PERICENTER = 240.9356
MEAN_ANOMALY   = 119.1130

EPHEMERIS_TYPE = 0
CLASSIFICATION_TYPE = U
NORAD_CAT_ID   = 65960
ELEMENT_SET_NO = 999
REV_AT_EPOCH   = 513
BSTAR          = .64231E-3
MEAN_MOTION_DOT = .21624E-3
MEAN_MOTION_DDOT = 0

CCSDS_OMM_VERS = 2.0
CREATION_DATE  = 
ORIGINATOR     = 

OBJECT_NAME    = KUIPER-00135
OBJECT_ID      = 2025-228Q
CENTER_NAME    = EARTH
REF_FRAME      = TEME
TIME_SYSTEM    = UTC
MEAN_ELEMENT_THEORY = SGP/SGP4

EPOCH          = 2025-11-08T16:13:27.515424
MEAN_MOTION    = 15.34726680
ECCENTRICITY   = .000464
INCLINATION    = 51.8782
RA_OF_ASC_NODE = 184.7506
ARG_OF_PERICENTER = 233.1411
MEAN_ANOMALY   = 126.9150

EPHEMERIS_TYPE = 0
CLASSIFICATION_TYPE = U
NORAD_CAT_ID   = 65961
ELEMENT_SET_NO = 999
REV_AT_EPOCH   = 518
BSTAR          = .15132E-2
MEAN_MOTION_DOT = .517E-3
MEAN_MOTION_DDOT = 0

CCSDS_OMM_VERS = 2.0
CREATION_DATE  = 
ORIGINATOR     = 

OBJECT_NAME    = KUIPER-00136
OBJECT_ID      = 2025-228R
CENTER_NAME    = EARTH
REF_FRAME      = TEME
TIME_SYSTEM    = UTC
MEAN_ELEMENT_THEORY = SGP/SGP4

EPOCH          = 2025-11-08T16:03:40.291776
MEAN_MOTION    = 15.35048252
ECCENTRICITY   = .0005763
INCLINATION    = 51.8780
RA_OF_ASC_NODE = 184.7039
ARG_OF_PERICENTER = 221.9965
MEAN_ANOMALY   = 138.0580

EPHEMERIS_TYPE = 0
CLASSIFICATION_TYPE = U
NORAD_CAT_ID   = 65962
ELEMENT_SET_NO = 999
REV_AT_EPOCH   = 518
BSTAR          = .14256E-2
MEAN_MOTION_DOT = .49182E-3
MEAN_MOTION_DDOT = 0

CCSDS_OMM_VERS = 2.0
CREATION_DATE  = 
ORIGINATOR     = 

OBJECT_NAME    = KUIPER-00137
OBJECT_ID      = 2025-228S
CENTER_NAME    = EARTH
REF_FRAME      = TEME
TIME_SYSTEM    = UTC
MEAN_ELEMENT_THEORY = SGP/SGP4

EPOCH          = 2025-11-08T16:12:25.862112
MEAN_MOTION    = 15.34707953
ECCENTRICITY   = .0003825
INCLINATION    = 51.8782
RA_OF_ASC_NODE = 184.7464
ARG_OF_PERICENTER = 229.2785
MEAN_ANOMALY   = 130.7869

EPHEMERIS_TYPE = 0
CLASSIFICATION_TYPE = U
NORAD_CAT_ID   = 65963
ELEMENT_SET_NO = 999
REV_AT_EPOCH   = 518
BSTAR          = .1715E-2
MEAN_MOTION_DOT = .58659E-3
MEAN_MOTION_DDOT = 0

CCSDS_OMM_VERS = 2.0
CREATION_DATE  = 
ORIGINATOR     = 

OBJECT_NAME    = KUIPER-00138
OBJECT_ID      = 2025-228T
CENTER_NAME    = EARTH
REF_FRAME      = TEME
TIME_SYSTEM    = UTC
MEAN_ELEMENT_THEORY = SGP/SGP4

EPOCH          = 2025-11-08T16:16:57.986688
MEAN_MOTION    = 15.34489244
ECCENTRICITY   = .0005971
INCLINATION    = 51.8771
RA_OF_ASC_NODE = 184.7599
ARG_OF_PERICENTER = 247.9430
MEAN_ANOMALY   = 112.0922

EPHEMERIS_TYPE = 0
CLASSIFICATION_TYPE = U
NORAD_CAT_ID   = 65964
ELEMENT_SET_NO = 999
REV_AT_EPOCH   = 518
BSTAR          = .24871E-2
MEAN_MOTION_DOT = .84965E-3
MEAN_MOTION_DDOT = 0

CCSDS_OMM_VERS = 2.0
CREATION_DATE  = 
ORIGINATOR     = 

OBJECT_NAME    = KUIPER-00140
OBJECT_ID      = 2025-228U
CENTER_NAME    = EARTH
REF_FRAME      = TEME
TIME_SYSTEM    = UTC
MEAN_ELEMENT_THEORY = SGP/SGP4

EPOCH          = 2025-11-08T14:44:10.419072
MEAN_MOTION    = 15.34422877
ECCENTRICITY   = .0003634
INCLINATION    = 51.8784
RA_OF_ASC_NODE = 185.0807
ARG_OF_PERICENTER = 244.8572
MEAN_ANOMALY   = 115.2037

EPHEMERIS_TYPE = 0
CLASSIFICATION_TYPE = U
NORAD_CAT_ID   = 65965
ELEMENT_SET_NO = 999
REV_AT_EPOCH   = 517
BSTAR          = .14327E-2
MEAN_MOTION_DOT = .48428E-3
MEAN_MOTION_DDOT = 0

CCSDS_OMM_VERS = 2.0
CREATION_DATE  = 
ORIGINATOR     = 

OBJECT_NAME    = KUIPER-00141
OBJECT_ID      = 2025-228V
CENTER_NAME    = EARTH
REF_FRAME      = TEME
TIME_SYSTEM    = UTC
MEAN_ELEMENT_THEORY = SGP/SGP4

EPOCH          = 2025-11-08T16:07:42.222144
MEAN_MOTION    = 15.34977233
ECCENTRICITY   = .0005269
INCLINATION    = 51.8767
RA_OF_ASC_NODE = 184.7171
ARG_OF_PERICENTER = 223.4953
MEAN_ANOMALY   = 136.5618

EPHEMERIS_TYPE = 0
CLASSIFICATION_TYPE = U
NORAD_CAT_ID   = 65966
ELEMENT_SET_NO = 999
REV_AT_EPOCH   = 518
BSTAR          = .16234E-2
MEAN_MOTION_DOT = .55975E-3
MEAN_MOTION_DDOT = 0

CCSDS_OMM_VERS = 2.0
CREATION_DATE  = 
ORIGINATOR     = 

OBJECT_NAME    = KUIPER-00146
OBJECT_ID      = 2025-228W
CENTER_NAME    = EARTH
REF_FRAME      = TEME
TIME_SYSTEM    = UTC
MEAN_ELEMENT_THEORY = SGP/SGP4

EPOCH          = 2025-11-08T16:08:31.886592
MEAN_MOTION    = 15.34892023
ECCENTRICITY   = .0006016
INCLINATION    = 51.8781
RA_OF_ASC_NODE = 184.7288
ARG_OF_PERICENTER = 229.4700
MEAN_ANOMALY   = 130.5762

EPHEMERIS_TYPE = 0
CLASSIFICATION_TYPE = U
NORAD_CAT_ID   = 65967
ELEMENT_SET_NO = 999
REV_AT_EPOCH   = 518
BSTAR          = .56347E-3
MEAN_MOTION_DOT = .19033E-3
MEAN_MOTION_DDOT = 0

CCSDS_OMM_VERS = 2.0
CREATION_DATE  = 
ORIGINATOR     = 

OBJECT_NAME    = KUIPER-00149
OBJECT_ID      = 2025-228X
CENTER_NAME    = EARTH
REF_FRAME      = TEME
TIME_SYSTEM    = UTC
MEAN_ELEMENT_THEORY = SGP/SGP4

EPOCH          = 2025-11-08T16:04:07.061088
MEAN_MOTION    = 15.35138273
ECCENTRICITY   = .0005468
INCLINATION    = 51.8775
RA_OF_ASC_NODE = 184.7015
ARG_OF_PERICENTER = 226.5222
MEAN_ANOMALY   = 133.5310

EPHEMERIS_TYPE = 0
CLASSIFICATION_TYPE = U
NORAD_CAT_ID   = 65968
ELEMENT_SET_NO = 999
REV_AT_EPOCH   = 518
BSTAR          = .17053E-2
MEAN_MOTION_DOT = .59151E-3
MEAN_MOTION_DDOT = 0

