KUIPER-00128            
1 65957U 25228L   25312.67140829  .00049022  00000+0  14249-2 0  9999
2 65957  51.8777 184.7196 0005683 225.6705 134.3815 15.34963567  5182
KUIPER-00129            
1 65958U 25228M   25311.36877433  .00063802  00000+0  18479-2 0  9994
2 65958  51.8777 190.9873 0005755 219.8143 140.2422 15.34958626  4982
KUIPER-00130            
1 65959U 25228N   25312.67463612  .00061304  00000+0  17859-2 0  9996
2 65959  51.8771 184.7330 0005069 231.1079 128.9455 15.34796184  5180
KUIPER-00134            
1 65960U 25228P   25312.35072808  .00021624  00000+0  64231-3 0  9994
2 65960  51.8769 186.3105 0004991 240.9356 119.1130 15.34705468  5138
KUIPER-00135            
1 65961U 25228Q   25312.67601291  .00051700  00000+0  15132-2 0  9997
2 65961  51.8782 184.7506 0004640 233.1411 126.9150 15.34726680  5180
KUIPER-00136            
1 65962U 25228R   25312.66921634  .00049182  00000+0  14256-2 0  9990
2 65962  51.8780 184.7039 0005763 221.9965 138.0580 15.35048252  5180
KUIPER-00137            
1 65963U 25228S   25312.67529933  .00058659  00000+0  17150-2 0  9993
2 65963  51.8782 184.7464 0003825 229.2785 130.7869 15.34707953  5181
KUIPER-00138            
1 65964U 25228T   25312.67844892  .00084965  00000+0  24871-2 0  9995
2 65964  51.8771 184.7599 0005971 247.9430 112.0922 15.34489244  5180
KUIPER-00140            
1 65965U 25228U   25312.61400948  .00048428  00000+0  14327-2 0  9999
2 65965  51.8784 185.0807 0003634 244.8572 115.2037 15.34422877  5178
KUIPER-00141            
1 65966U 25228V   25312.67201646  .00055975  00000+0  16234-2 0  9994
2 65966  51.8767 184.7171 0005269 223.4953 136.5618 15.34977233  5185
KUIPER-00146            
1 65967U 25228W   25312.67259128  .00019033  00000+0  56347-3 0  9998
2 65967  51.8781 184.7288 0006016 229.4700 130.5762 15.34892023  5185
KUIPER-00149            
1 65968U 25228X   25312.66952617  .00059151  00000+0  17053-2 0  9996
2 65968  51.8775 184.7015 0005468 226.5222 133.5310 15.35138273  5187
